[
    {
        "Altitude(m)": 611965.2032790809,
        "Argument of Periapsis(deg)": 0.0,
        "Eccentricity": 0.0,
        "Inclination(deg)": 60.0,
        "Latitude(deg)": 59.14021589388926,
        "Longitude(deg)": -176.03002088809066,
        "Mean Anomaly(deg)": 81.8182,
        "RAAN(deg)": 210.0,
        "Satellite Name": "Test1 929",
        "Satellite Number": 929,
        "Semi-Major Axis(m)": 6980739.136638005,
        "Time(s)": 0
    },
    {
        "Altitude(m)": 611995.8281034295,
        "Argument of Periapsis(deg)": 0.00010418945913296404,
        "Eccentricity": 0.0,
        "Inclination(deg)": 60.0,
        "Latitude(deg)": 59.283313955995276,
        "Longitude(deg)": -174.89665601976253,
        "Mean Anomaly(deg)": 82.43830614546181,
        "RAAN(deg)": 209.99957995086027,
        "Satellite Name": "Test1 929",
        "Satellite Number": 929,
        "Semi-Major Axis(m)": 6980739.136638005,
        "Time(s)": 10
    }
]